STARLINK-2022           
1 47643U 21012Z   23190.77981242  .00001857  00000+0  14348-3 0  9998
2 47643  53.0545 103.6736 0001035  78.7171 281.3934 15.06403261132952
